STARLINK-3841           
1 52369U 22045AQ  23001.40376558 -.00001727  00000+0 -90396-4 0  9991
2 52369  53.2180  11.3170 0003001  14.4360 345.6717 15.08833615 40301
STARLINK-3827           
1 52370U 22045AR  23001.46267329  .00000032  00000+0  20116-4 0  9993
2 52370  53.2174  11.0544 0002032  37.6762 322.4373 15.08824254 40315
STARLINK-3798           
1 52371U 22045AS  23001.45898995 -.00000191  00000+0  61106-5 0  9994
2 52371  53.2184  11.0676 0002838  29.5265 330.5887 15.08836888 40300
STARLINK-3796           
1 52372U 22045AT  23001.45162138 -.00002303  00000+0 -12663-3 0  9998
2 52372  53.2185  11.1020 0003207  24.5245 335.5899 15.08831618 40304
STARLINK-3550           
1 52373U 22045AU  23001.44058510  .00000266  00000+0  34845-4 0  9997
2 52373  53.2190  11.1465 0002667  23.3576 336.7537 15.08833134 40315
STARLINK-3762           
1 52374U 22045AV  23001.44425663 -.00004124  00000+0 -24124-3 0  9992
2 52374  53.2186  11.1274 0001916  36.4367 323.6756 15.08829978 40317
STARLINK-3785           
1 52375U 22045AW  23001.51419389 -.00000919  00000+0 -39604-4 0  9997
2 52375  53.2184  10.8281 0002711  25.7632 334.3495 15.08826669 40324
STARLINK-3767           
1 52376U 22045AX  23001.43690581 -.00001008  00000+0 -45199-4 0  9990
2 52376  53.2192  11.1633 0002774  26.8726 333.2409 15.08827205 40313
STARLINK-3805           
1 52377U 22045AY  23001.43785510 -.00003415  00000+0 -19657-3 0  9991
2 52377  53.2178  11.1735 0002426  29.0463 331.0664 15.08828678 40301
STARLINK-3806           
1 52378U 22045AZ  23001.29705578 -.00001234  00000+0 -59450-4 0  9995
2 52378  53.2218  11.7969 0002735  11.9048 348.2008 15.08828444 40295
STARLINK-3800           
1 52379U 22045BA  23001.30074210  .00003076  00000+0  21134-3 0  9991
2 52379  53.2220  11.7868 0002422  32.8699 327.2444 15.08833737 40296
STARLINK-3793           
1 52380U 22045BB  23001.40933227 -.00001630  00000+0 -84317-4 0  9995
2 52380  53.2203   1.2830 0002820  21.2388 338.8720 15.08836697 40441
STARLINK-3803           
1 52381U 22045BC  23001.49208962 -.00005602  00000+0 -33417-3 0  9993
2 52381  53.2192  10.9254 0002802  23.0974 337.0144 15.08830491 40321
STARLINK-3799           
1 52382U 22045BD  23001.42218714  .00000847  00000+0  71398-4 0  9998
2 52382  53.2215  11.2517 0006535  10.7426 349.3705 15.08835569 40315
STARLINK-3811           
1 52383U 22045BE  23001.50869265 -.00004490  00000+0 -26425-3 0  9991
2 52383  53.2198   0.8507 0002591  29.9814 330.1326 15.08826844 40469
STARLINK-3870           
1 52451U 22049A   23001.40378036  .00001948  00000+0  14048-3 0  9992
2 52451  53.2176 251.3147 0002456  30.7740 329.3396 15.08841856 36497
STARLINK-3909           
1 52452U 22049B   23001.42680940  .00013829  00000+0  88568-3 0  9994
2 52452  53.2158 251.2187 0002404  33.9501 326.1644 15.08821444 36496
STARLINK-3872           
1 52453U 22049C   23001.66136723 -.00003727  00000+0 -21622-3 0  9992
2 52453  53.2176 250.1673 0002494  23.9259 336.1849 15.08827137 36698
STARLINK-3888           
1 52454U 22049D   23001.66506403 -.00003002  00000+0 -17064-3 0  9990
2 52454  53.2150 250.1529 0002250  33.6157 326.4977 15.08829855 36699
STARLINK-3890           
1 52455U 22049E   23001.65865905 -.00003840  00000+0 -22334-3 0  9991
2 52455  53.2152 250.1799 0002811  41.1435 318.9768 15.08822934 36692
STARLINK-3896           
1 52456U 22049F   23001.65499014 -.00003086  00000+0 -17590-3 0  9996
2 52456  53.2154 250.1975 0002776  29.2881 330.8266 15.08829873 36698
STARLINK-3899           
1 52457U 22049G   23001.12138817  .00004699  00000+0  31315-3 0  9990
2 52457  53.2169 252.5955 0002342  36.3009 323.8142 15.08836090 36457
STARLINK-3898           
1 52458U 22049H   23001.64761793  .00018568  00000+0  11819-2 0  9999
2 52458  53.2146 250.2239 0002375  66.4081 293.7161 15.08830817 36696
STARLINK-3856           
1 52459U 22049J   23001.36791102  .00000369  00000+0  41311-4 0  9998
2 52459  53.2167 241.4706 0002435  27.9657 332.1466 15.08822609 36628
STARLINK-3865           
1 52460U 22049K   23001.63014946  .00003563  00000+0  24181-3 0  9998
2 52460  53.2174 240.2961 0001549  99.1045 261.0122 15.08840534 36665
STARLINK-3900           
1 52461U 22049L   23001.63010441 -.00000966  00000+0 -42588-4 0  9993
2 52461  53.2164 230.2984 0002078  51.3232 308.7945 15.08841934 36808
STARLINK-3903           
1 52462U 22049M   23001.55926067 -.00005119  00000+0 -30383-3 0  9999
2 52462  53.2157 240.6148 0001698  57.9840 302.1317 15.08828331 36652
STARLINK-3885           
1 52463U 22049N   23001.62642674 -.00002044  00000+0 -11033-3 0  9992
2 52463  53.2159 230.3105 0002913  31.0412 329.0752 15.08840602 36806
STARLINK-3904           
1 52464U 22049P   23001.36421774 -.00001147  00000+0 -53990-4 0  9992
2 52464  53.2170 241.4935 0002444  32.7755 327.3388 15.08827533 36625
STARLINK-3863           
1 52465U 22049Q   23001.62273695 -.00000657  00000+0 -23137-4 0  9994
2 52465  53.2156 230.3319 0002813  27.0623 333.0515 15.08833766 36805
STARLINK-3840           
1 52466U 22049R   23001.35317368 -.00003023  00000+0 -17185-3 0  9996
2 52466  53.2174 241.5404 0003344  27.1108 333.0058 15.08839143 36621
STARLINK-3873           
1 52467U 22049S   23001.35685923 -.00003044  00000+0 -17331-3 0  9998
2 52467  53.2180 241.5277 0001311  65.7429 294.3700 15.08821748 36628
STARLINK-3864           
1 52468U 22049T   23001.07717747  .00002342  00000+0  16522-3 0  9997
2 52468  53.2163 242.7870 0002530  26.8115 333.3007 15.08842797 36582
STARLINK-3828           
1 52469U 22049U   23001.08454243  .00002882  00000+0  19906-3 0  9996
2 52469  53.2163 242.7504 0001963  43.6105 316.5042 15.08842163 36581
STARLINK-3859           
1 52470U 22049V   23001.40101765 -.00003607  00000+0 -20862-3 0  9993
2 52470  53.2154 241.3338 0002266  38.5867 321.5287 15.08841370 36630
STARLINK-3862           
1 52471U 22049W   23001.27958122  .00000349  00000+0  40060-4 0  9997
2 52471  53.2162 241.8707 0002552  34.1102 326.0054 15.08820805 36617
STARLINK-3881           
1 52472U 22049X   23001.52981584 -.00002560  00000+0 -14280-3 0  9997
2 52472  53.2148 240.7559 0002666  32.1034 328.0120 15.08830394 36657
STARLINK-3879           
1 52473U 22049Y   23001.07348837  .00000043  00000+0  20820-4 0  9996
2 52473  53.2162 242.8080 0002623  26.0913 334.0211 15.08834210 36588
STARLINK-3855           
1 52474U 22049Z   23001.61538781 -.00000457  00000+0 -10581-4 0  9990
2 52474  53.2171 230.3621 0002802  27.8180 332.2962 15.08834130 36805
STARLINK-3882           
1 52475U 22049AA  23001.66325191  .00000549  00000+0  52627-4 0  9992
2 52475  53.2142 240.1547 0002109  47.0131 313.1038 15.08831390 36830
STARLINK-3835           
1 52476U 22049AB  23001.61170015 -.00005762  00000+0 -34426-3 0  9991
2 52476  53.2163 230.3772 0002969  30.6365 329.4800 15.08829708 38048
STARLINK-3860           
1 52477U 22049AC  23001.61906923 -.00001650  00000+0 -85546-4 0  9999
2 52477  53.2168 230.3469 0002915  21.3217 338.7896 15.08836516 38044
STARLINK-3825           
1 52478U 22049AD  23001.65493244 -.00002928  00000+0 -16600-3 0  9994
2 52478  53.2126 240.1955 0001744  54.0583 306.0570 15.08825463 36837
STARLINK-3878           
1 52479U 22049AE  23001.33938905 -.00001485  00000+0 -75206-4 0  9993
2 52479  53.2169 231.6000 0002650  30.6091 329.5055 15.08825729 36925
STARLINK-3839           
1 52480U 22049AF  23001.05508805 -.00008699  00000+0 -52898-3 0  9991
2 52480  53.2153 242.8865 0002477  36.7259 323.3903 15.08847119 36586
STARLINK-3842           
1 52481U 22049AG  23001.65859780 -.00004381  00000+0 -25737-3 0  9995
2 52481  53.2168 240.1851 0002123  37.0252 323.0886 15.08834739 36833
STARLINK-3813           
1 52482U 22049AH  23001.33201275 -.00004335  00000+0 -25444-3 0  9995
2 52482  53.2160 231.6284 0002471  37.1906 322.9257 15.08835721 36926
STARLINK-3875           
1 52483U 22049AJ  23001.60802094 -.00003363  00000+0 -19327-3 0  9995
2 52483  53.2153 230.3896 0002430  36.4309 323.6848 15.08833664 38041
STARLINK-3887           
1 52484U 22049AK  23001.44885974 -.00001142  00000+0 -53642-4 0  9998
2 52484  53.2161 241.1212 0002719  25.1429 334.9696 15.08839476 36648
STARLINK-3913           
1 52485U 22049AL  23001.33570796 -.00000685  00000+0 -24935-4 0  9994
2 52485  53.2164 231.6166 0002521  34.1848 325.9306 15.08830457 36929
STARLINK-3918           
1 52486U 22049AM  23001.64021673 -.00003756  00000+0 -21813-3 0  9997
2 52486  53.2149 240.2642 0002469  40.3140 319.8035 15.08815510 36837
STARLINK-3902           
1 52487U 22049AN  23001.33664916 -.00001471  00000+0 -74295-4 0  9992
2 52487  53.2152 231.6061 0002710  32.4344 327.6814 15.08834833 36929
STARLINK-3892           
1 52488U 22049AP  23001.63653895  .00000535  00000+0  51741-4 0  9999
2 52488  53.2161 240.2825 0002831  32.8371 327.2797 15.08827839 36836
STARLINK-3923           
1 52489U 22049AQ  23001.64389758 -.00000666  00000+0 -23739-4 0  9998
2 52489  53.2123 240.2461 0002289  50.5666 309.5528 15.08818715 36830
STARLINK-3914           
1 52490U 22049AR  23001.05602742  .00002109  00000+0  15064-3 0  9999
2 52490  53.2155 232.8852 0002669  31.4256 328.6895 15.08833370 36724
STARLINK-3908           
1 52491U 22049AS  23001.59329944 -.00005675  00000+0 -33873-3 0  9990
2 52491  53.2159 230.4734 0003307  27.8100 332.3068 15.08832072 36800
STARLINK-3916           
1 52492U 22049AT  22365.91618087  .00007322  00000+0  47744-3 0  9999
2 52492  53.2127 233.5116 0002732  31.2698 328.8456 15.08854634 36704
STARLINK-3883           
1 52493U 22049AU  23001.32466607 -.00002413  00000+0 -13352-3 0  9998
2 52493  53.2174 231.6825 0002733  32.1926 327.9233 15.08845004 36926
STARLINK-3857           
1 52494U 22049AV  23001.63378133 -.00001980  00000+0 -10633-3 0  9996
2 52494  53.2145 230.2939 0003048  37.9953 322.1254 15.08835438 36817
STARLINK-3905           
1 52495U 22049AW  23001.58225995 -.00006349  00000+0 -38125-3 0  9998
2 52495  53.2132 230.5238 0002837  30.4336 329.6820 15.08827747 36968
